{
  "type": "FeatureCollection",
  "name": "FirePredict_Kilimanjaro_Zones",
  "description": "Fire risk monitoring zones for Mount Kilimanjaro, Tanzania. Used by the FirePredict early warning system.",
  "crs": {
    "type": "name",
    "properties": { "name": "urn:ogc:def:crs:OGC:1.3:CRS84" }
  },
  "features": [
    {
      "type": "Feature",
      "properties": {
        "zone_id": "machame_route",
        "zone_name": "Machame Route",
        "elevation_m": 1800,
        "vegetation": "Montane forest / heath",
        "risk_label": "High",
        "risk_score": 0.82,
        "risk_color": "#D32F2F",
        "notes": "High tourism activity. Dry season risk: very high."
      },
      "geometry": {
        "type": "Point",
        "coordinates": [37.2556, -3.0674]
      }
    },
    {
      "type": "Feature",
      "properties": {
        "zone_id": "shira_plateau",
        "zone_name": "Shira Plateau",
        "elevation_m": 3800,
        "vegetation": "Heath / moorland",
        "risk_label": "High",
        "risk_score": 0.71,
        "risk_color": "#D32F2F",
        "notes": "Exposed plateau. Elevated beekeeping activity with open-flame tools."
      },
      "geometry": {
        "type": "Point",
        "coordinates": [37.2109, -3.0522]
      }
    },
    {
      "type": "Feature",
      "properties": {
        "zone_id": "mweka_route",
        "zone_name": "Mweka Route",
        "elevation_m": 1640,
        "vegetation": "Montane forest",
        "risk_label": "High",
        "risk_score": 0.76,
        "risk_color": "#D32F2F",
        "notes": "Adjacent to agricultural areas. Historical fires recorded Oct 2022."
      },
      "geometry": {
        "type": "Point",
        "coordinates": [37.3640, -3.1330]
      }
    },
    {
      "type": "Feature",
      "properties": {
        "zone_id": "rongai_corridor",
        "zone_name": "Rongai Corridor",
        "elevation_m": 1980,
        "vegetation": "Savanna / dry forest transition",
        "risk_label": "Moderate",
        "risk_score": 0.55,
        "risk_color": "#F57C00",
        "notes": "Agricultural burning in adjacent areas. Monitor closely in dry season."
      },
      "geometry": {
        "type": "Point",
        "coordinates": [37.4100, -2.9852]
      }
    },
    {
      "type": "Feature",
      "properties": {
        "zone_id": "marangu_gate",
        "zone_name": "Marangu Gate",
        "elevation_m": 1879,
        "vegetation": "Montane forest",
        "risk_label": "Low",
        "risk_score": 0.38,
        "risk_color": "#FBC02D",
        "notes": "Well-managed entry gate area. Regular ranger presence."
      },
      "geometry": {
        "type": "Point",
        "coordinates": [37.5231, -3.0396]
      }
    },
    {
      "type": "Feature",
      "properties": {
        "zone_id": "karanga_valley",
        "zone_name": "Karanga Valley",
        "elevation_m": 3963,
        "vegetation": "Alpine desert / moorland",
        "risk_label": "Very Low",
        "risk_score": 0.22,
        "risk_color": "#388E3C",
        "notes": "High elevation zone. Sparse vegetation reduces fire spread risk."
      },
      "geometry": {
        "type": "Point",
        "coordinates": [37.3200, -3.1012]
      }
    },
    {
      "type": "Feature",
      "properties": {
        "zone_id": "kilema_area",
        "zone_name": "Kilema Area",
        "elevation_m": 1500,
        "vegetation": "Coffee / forest mosaic",
        "risk_label": "Very Low",
        "risk_score": 0.16,
        "risk_color": "#388E3C",
        "notes": "Dense canopy cover. Good moisture retention through the dry season."
      },
      "geometry": {
        "type": "Point",
        "coordinates": [37.4600, -3.0200]
      }
    }
  ]
}
